FID,UNIQUEID,SPP_COM,SPP_BOT,DBH,LOCATION,ADDRESS,STREET,ONSTR,X,Y,LATITUDE,LONGITUDE
0,ZXR20161025135714,Stump,Stump,30.000000000000000,Borderline,59.000000000000000,SHERMAN AVE,SHERMAN AVE,107236.060998999990000,898537.928504999960000,42.331823702900003,-72.625586956399999
1,ZXR20161025085923,Stump,Stump,51.000000000000000,Street,40.000000000000000,BRADFORD ST,BRADFORD ST,106762.494926000000000,898367.852250000000000,42.330236265000003,-72.631305110800000
2,CXK20161019082420,Stump,Stump,23.000000000000000,Street,121.000000000000000,WILLOW ST,WILLOW ST,103338.265099000000000,897858.134426999950000,42.325231415099999,-72.672763117499997
3,CXK20161017152614,Stump,Stump,65.000000000000000,Street,109.000000000000000,MILTON ST,MILTON ST,104800.491072000000000,897613.761923999990000,42.323211191799999,-72.654984480200000
4,ZXR20161007110339,Stump,Stump,15.000000000000000,Street,137.000000000000000,ELM ST,ELM ST,105954.164878000000000,897323.558257999950000,42.320738547700003,-72.640942405399997
5,CXK20161013081212,Stump,Stump,21.000000000000000,Borderline,69.000000000000000,NORTH MAPLE ST,SHEFFIELD LN,103475.348746000000000,899374.764077999980000,42.338901054499999,-72.671352816400002
6,CXK20161109121855,Stump,Stump,38.000000000000000,Street,206.000000000000000,GLENDALE RD,GLENDALE RD,99698.845387599999000,894140.760621999970000,42.291308773300003,-72.716269969699994
7,JXS20161111145434,Stump,Stump,36.000000000000000,Street,685.000000000000000,RYAN RD,RYAN RD,101081.051595000000000,896618.313674999980000,42.313787926899998,-72.699933929799997
8,CXK20161013094357,Stump,Stump,30.000000000000000,Street,97.000000000000000,HILLCREST DR,HILLCREST DR,103673.644674000000000,899706.615054000050000,42.341912859099999,-72.669001932100002
9,JXS20161111150443,Stump,Stump,60.000000000000000,Borderline,785.000000000000000,RYAN RD,RYAN RD,100801.929896999990000,896380.319626000010000,42.311610109699998,-72.703278636099995
10,CXK20161021111241,Stump,Stump,11.000000000000000,Street,163.000000000000000,NORTH MAPLE ST,NORTH MAPLE ST,103465.398503000000000,899817.534299000050000,42.342885629100003,-72.671547345899995
11,CXK20161017105141,Stump,Stump,27.000000000000000,Borderline,216.000000000000000,FEDERAL ST,FEDERAL ST,104433.775964999990000,898161.698348999950000,42.328098935699998,-72.659523377499994
12,CXK20161017134316,Stump,Stump,63.000000000000000,Borderline,60.000000000000000,FEDERAL ST,FEDERAL ST,104900.034090999990000,897404.013608000010000,42.321335158799997,-72.653742527899993
13,CXK20161019151534,Stump,Stump,7.000000000000000,Street,76.000000000000000,MAPLE ST,MAPLE ST,103409.965257000000000,898955.197733000040000,42.335116041399999,-72.672076202900001
14,CXK20161114100806,Stump,Stump,23.000000000000000,Borderline,83.000000000000000,SYLVESTER RD,SYLVESTER RD,99738.829952200002000,896450.735565999990000,42.312108254000002,-72.716184542700006
15,CXK20161012082911,Stump,Stump,13.000000000000000,Borderline,6.000000000000000,HATFIELD ST,HATFIELD ST,104714.229840000000000,898706.708244999990000,42.333039394300002,-72.656210625699998
16,JXS20161110090436,Stump,Stump,15.000000000000000,Street,592.000000000000000,SPRING ST,SPRING ST,101242.580590000000000,900066.875346999960000,42.344852162499997,-72.698562550199995
17,JXS20161027080828,Stump,Stump,8.000000000000000,Park/Public Space,99999.000000000000000,N/A,N/A,103537.752331000000000,900363.942730000010000,42.347813321200000,-72.670760381199997
18,JXS20161028141507,Stump,Stump,6.000000000000000,Street,125.000000000000000,PLEASANT ST,RAILRD AVE,107112.139924000000000,896994.048249999990000,42.317910859800001,-72.626842955399994
19,JXS20161027093709,Stump,Stump,6.000000000000000,Park/Public Space,99999.000000000000000,N/A,N/A,103563.430009000000000,900146.207906999970000,42.345856453300001,-72.670412511400002
20,JXS20161101134144,Stump,Stump,6.000000000000000,Park/Public Space,99999.000000000000000,N/A,N/A,104908.246778999990000,896134.904978999980000,42.309911584799998,-72.653434712099994
21,JXS20161111145242,Stump,Stump,24.000000000000000,Street,685.000000000000000,RYAN RD,RYAN RD,101102.760379000000000,896652.379671999950000,42.314097337400000,-72.699676438400004
22,CXK20161020093812,Stump,Stump,37.000000000000000,Street,48.000000000000000,MEADOW ST,MEADOW ST,103097.299333000000000,898897.465494000000000,42.334557595699998,-72.675860125000000
23,CXK20161020133329,Stump,Stump,44.000000000000000,Borderline,111.000000000000000,OAK ST,OAK ST,103191.291807000000000,899771.631896000010000,42.342438475800002,-72.674865821699996
24,ZXR20161007101301,Stump,Stump,44.000000000000000,Street,250.000000000000000,CRESCENT ST,CRESCENT ST,105821.461278000000000,897641.793259000060000,42.323587323200002,-72.642603857099999
25,CXK20161110081303,Stump,Stump,24.000000000000000,Street,1095.000000000000000,FLORENCE RD,FLORENCE RD,103262.209952000000000,894457.281729000040000,42.294607426699997,-72.673118299600006
26,CXK20161110095914,Stump,Stump,34.000000000000000,Street,1024.000000000000000,WESTHAMPTON RD,WESTHAMPTON RD,99531.996491099999000,894814.962462999970000,42.297356495300001,-72.718409709499994
27,CXK20161110135023,Stump,Stump,33.000000000000000,Street,50.000000000000000,LOUDVILLE RD,LOUDVILLE RD,98188.416807100002000,894177.651926000020000,42.291445511699997,-72.734589635800006
28,JXS20161021103931,Stump,Stump,19.000000000000000,Street,251.000000000000000,STATE ST,STATE ST,106418.500604000000000,898046.287967000040000,42.327300378499999,-72.635426567500005
29,CXK20161115080854,Stump,Stump,12.000000000000000,Street,412.000000000000000,SYLVESTER RD,SYLVESTER RD,99582.594125400006000,897714.084031000030000,42.323460779400001,-72.718298321099994
30,CXK20161020141325,Stump,Stump,16.000000000000000,Street,113.000000000000000,FERN ST,JUNIPER ST,102851.667063999990000,899884.354534000040000,42.343411012499999,-72.679005875100003
31,CXK20161020131319,Stump,Stump,26.000000000000000,Street,12.000000000000000,WARREN ST,WARREN ST,103241.131200000000000,899483.986251999970000,42.339855277799998,-72.674212996500003
32,CXK20161110095948,Stump,Stump,30.000000000000000,Street,1024.000000000000000,WESTHAMPTON RD,WESTHAMPTON RD,99528.184719199999000,894811.579763000020000,42.297325554099999,-72.718455343900004
33,ZXR20161012093654,Stump,Stump,44.000000000000000,Street,70.000000000000000,GOTHIC ST,GOTHIC ST,106604.990155000010000,897393.010419999950000,42.321441862500002,-72.633058867200006
34,CXK20161116093512,Stump,Stump,13.000000000000000,Street,63.000000000000000,FLORENCE RD,FLORENCE RD,102942.760530000000000,898189.416573000020000,42.328164558300003,-72.677616516300006
35,CXK20161109114641,Stump,Stump,17.000000000000000,Street,193.000000000000000,GLENDALE RD,GLENDALE RD,99680.694719399995000,894180.289939000040000,42.291662285900003,-72.716496874100002
36,CXK20161109092921,Stump,Stump,16.000000000000000,Street,942.000000000000000,PARK HILL RD,PARK HILL RD,100081.878595000000000,893873.118416000040000,42.288948532799999,-72.711579768600004
37,CXK20161025083750,Stump,Stump,30.000000000000000,Street,120.000000000000000,RYAN RD,CLARK ST,102489.792407999990000,898076.043772000000000,42.327087547200001,-72.683092694799996
38,CXK20161025145158,Stump,Stump,32.000000000000000,Street,243.000000000000000,ACREBROOK DR,ACREBROOK DR,101821.509047000000000,896822.639904999990000,42.315720696100001,-72.690987606299998
39,CXK20161025114752,Stump,Stump,12.000000000000000,Street,402.000000000000000,RYAN RD,ACREBROOK DR,101884.941458000000000,897346.850038000030000,42.320447600400001,-72.690306953499999
40,CXK20161101094212,Stump,Stump,4.000000000000000,Street,29.000000000000000,CARDINAL WAY,CARDINAL WAY,101727.231956000000000,895544.507452000050000,42.304203090400001,-72.691914469799997
41,ZXR20161013150548,Stump,Stump,23.000000000000000,Street,50.000000000000000,HAWLEY ST,HAWLEY ST,107172.036660000000000,897213.205502000060000,42.319890851899999,-72.626151519199993
42,CXK20161024145103,Stump,Stump,27.000000000000000,Street,465.000000000000000,NORTH FARMS RD,NORTH FARMS RD,103560.258506000000000,902194.559117999980000,42.364295205399998,-72.670792210700000
43,ZXR20161014084125,Stump,Stump,14.000000000000000,Street,36.000000000000000,HOLYOKE ST,HAWLEY ST,107323.953877000010000,896891.728722000030000,42.317014933800003,-72.624257332300004
44,JXS20161114112427,Stump,Stump,14.000000000000000,Borderline,428.000000000000000,CHESTERFIELD RD,CHESTERFIELD RD,100087.885091000000000,899829.239549000050000,42.342566062899998,-72.712533558999993
45,JXS20161110090406,Stump,Stump,16.000000000000000,Street,592.000000000000000,SPRING ST,SPRING ST,101235.601750999990000,900073.580094999980000,42.344911635300001,-72.698648380700007
46,ZXR20161028083008,Stump,Stump,10.000000000000000,Street,1.000000000000000,ROUNDHOUSE PLAZA,ROUNDHOUSE PLAZA,106672.536059000010000,896841.215344000030000,42.316482639599997,-72.632150653500005
47,ZXR20161028083559,Stump,Stump,12.000000000000000,Street,1.000000000000000,ROUNDHOUSE PLAZA,ROUNDHOUSE PLAZA,106689.065094000010000,896894.411091999970000,42.316963486600002,-72.631958727599994
48,CXK20161110084932,Stump,Stump,20.000000000000000,Street,346.000000000000000,GLENDALE RD,GLENDALE RD,99871.442235499999000,893670.881005999980000,42.287101051699999,-72.714096214799994
49,ZXR20161013151324,Stump,Stump,14.000000000000000,Street,23.000000000000000,PHILLIPS PL,PHILLIPS PL,107142.223021000000000,897266.252208000050000,42.320364838099998,-72.626521663099993
50,CXK20161018085757,Stump,Stump,16.000000000000000,Street,72.000000000000000,CLEMENT ST,CLEMENT ST,103905.370352000000000,897094.971049000040000,42.318431395899999,-72.665756947399998
51,ZXR20161014110810,Stump,Stump,9.000000000000000,Street,251.000000000000000,PLEASANT ST,PLEASANT ST,107155.143069000000000,896891.723845000030000,42.316994840500001,-72.626304945300006
52,ZXR20161006111113,Stump,Stump,32.000000000000000,Street,94.000000000000000,VERNON ST,VERNON ST,105095.780184000000000,897309.890905000040000,42.320511674400002,-72.651352633599998
53,ZXR20161014110125,Stump,Stump,2.000000000000000,Street,223.000000000000000,PLEASANT ST,PLEASANT ST,107129.761856000000000,896922.851786999960000,42.317272039099997,-72.626617797400002
54,CXK20161024123948,Stump,Stump,22.000000000000000,Street,128.000000000000000,BRIDGE RD,SPRING GROVE AVE,103166.952833000000000,900027.769976999960000,42.344741202400002,-72.675203986699998
55,CXK20161109133709,Stump,Stump,22.000000000000000,Street,35.000000000000000,GLENDALE RD,GLENDALE RD,99660.840289400003000,894803.871571999970000,42.297273213600000,-72.716845470199999
56,JXS20161024151755,Stump,Stump,12.000000000000000,Street,375.000000000000000,KING ST,KING ST,106301.266408000000000,899162.505878000050000,42.337334555900000,-72.637029328599994
57,CXK20161026100647,Stump,Stump,18.000000000000000,Street,70.000000000000000,OVERLOOK DR,OVERLOOK DR,101805.050515000000000,896713.381984999990000,42.314735088100001,-72.691168728099996
58,CXK20161109114724,Stump,Stump,24.000000000000000,Street,193.000000000000000,GLENDALE RD,GLENDALE RD,99679.482909300001000,894190.619591000020000,42.291755117900003,-72.716513353099998
59,JXS20161026084449,Stump,Stump,18.000000000000000,Borderline,42.000000000000000,JACKSON ST,PROSPECT HEIGHTS,105583.269192000010000,898470.568845000000000,42.331019228599999,-72.645628374099999
60,CXK20161111123829,Stump,Stump,19.000000000000000,Borderline,41.000000000000000,NORTH LOUDVILLE RD,NORTH LOUDVILLE RD,98087.987173500005000,894546.150037999960000,42.294749626200002,-72.735872037600004
61,CXK20161111123759,Stump,Stump,23.000000000000000,Borderline,41.000000000000000,NORTH LOUDVILLE RD,NORTH LOUDVILLE RD,98080.882243100001000,894553.648399999950000,42.294816199400003,-72.735959503600000
62,JXS20161024145839,Stump,Stump,21.000000000000000,Street,306.000000000000000,KING ST,KING ST,106452.457721000000000,898623.526064999980000,42.332500770300001,-72.635107811699996
63,JXS20161024090416,Stump,Stump,18.000000000000000,Street,366.000000000000000,KING ST,KING ST,106319.407353000000000,899034.781787000010000,42.336186956699997,-72.636788559699994
64,CXK20161024113845,Stump,Stump,22.000000000000000,Borderline,48.000000000000000,STERLING RD,BURNCOLT RD,103354.262910000000000,900279.241409000010000,42.347028148800000,-72.672972971899995
65,CXK20161111081032,Stump,Stump,11.000000000000000,Street,163.000000000000000,SPRING ST,SPRING ST,102321.700736000000000,898896.140527999960000,42.334449026900003,-72.685270150500003
66,CXK20161024124026,Stump,Stump,21.000000000000000,Street,128.000000000000000,BRIDGE RD,SPRING GROVE AVE,103166.877068000000000,900029.852581999960000,42.344759940499998,-72.675205254299996
67,JXS20161104114743,Stump,Stump,20.000000000000000,Street,48.000000000000000,EVERGREEN RD,EVERGREEN RD,101410.648180000000000,901365.004755000000000,42.356559056000002,-72.696744108399997
68,CXK20161115080334,Stump,Stump,26.000000000000000,Street,404.000000000000000,SYLVESTER RD,SYLVESTER RD,99608.343038000006000,897699.690219999990000,42.323334517699998,-72.717983475500006
69,CXK20161024124113,Stump,Stump,24.000000000000000,Street,128.000000000000000,BRIDGE RD,SPRING GROVE AVE,103167.108891000000000,900031.514635000030000,42.344774931000003,-72.675202719100000
70,CXK20161111123733,Stump,Stump,19.000000000000000,Street,41.000000000000000,NORTH LOUDVILLE RD,NORTH LOUDVILLE RD,98076.437567800007000,894557.150109000040000,42.294847141900000,-72.736014011300000
71,CXK20161011145313,Stump,Stump,48.000000000000000,Street,168.000000000000000,SOUTH MAIN ST,PINE ST,103898.786745000000000,898851.219342999980000,42.334240346199998,-72.666128068399999
72,ZXR20161018141250,Stump,Stump,47.000000000000000,Street,16.000000000000000,WINTHROP ST,WINTHROP ST,106100.425564000000000,895945.888916000030000,42.308354273299997,-72.638945055099995
73,CXK20161110131839,Stump,Stump,28.000000000000000,Street,45.000000000000000,LOUDVILLE RD,LOUDVILLE RD,98179.575648400001000,894245.800035999970000,42.292057826899999,-72.734708792199996
74,CXK20161110095544,Stump,Stump,33.000000000000000,Street,1024.000000000000000,WESTHAMPTON RD,WESTHAMPTON RD,99544.161928400004000,894824.995979000000000,42.297448381199999,-72.718263932900001
75,CXK20161107153148,Stump,Stump,14.000000000000000,Street,129.000000000000000,GREENLEAF DR,LONGFELLOW DR,102267.414644000000000,894872.183712000030000,42.298218582899999,-72.685250333599996
76,JXS20161111102652,Stump,Stump,9.000000000000000,Street,94.000000000000000,CHESTERFIELD RD,CHESTERFIELD RD,101459.257824000000000,899697.696791999970000,42.341556222500003,-72.695870393299998
77,CXK20161114101236,Stump,Stump,26.000000000000000,Street,59.000000000000000,SYLVESTER RD,SYLVESTER RD,99751.724293599997000,896343.503189999960000,42.311144607300001,-72.716009610800000
78,CXK20161114092820,Stump,Stump,30.000000000000000,Street,6.000000000000000,SYLVESTER RD,TURKEY HILL RD,99701.299476400003000,896215.616129999980000,42.309986899400002,-72.716599055299994
79,CXK20161024100958,Stump,Stump,21.000000000000000,Street,79.000000000000000,COUNTRY WAY,COUNTRY WAY,103067.987301000000000,900842.665759000000000,42.352064571299998,-72.676541327999999
80,CXK20161024113921,Stump,Stump,14.000000000000000,Borderline,48.000000000000000,STERLING RD,BURNCOLT RD,103351.337224000000000,900279.177570999950000,42.347027211899999,-72.673008465400002
81,CXK20161025145528,Stump,Stump,23.000000000000000,Street,227.000000000000000,ACREBROOK DR,ACREBROOK DR,101863.298683999990000,896838.007217000010000,42.315864284500002,-72.690483330399999
82,JXS20161028140957,Stump,Stump,8.000000000000000,Street,125.000000000000000,PLEASANT ST,RAILRD AVE,107119.028810000000000,897022.333421000050000,42.318166304400002,-72.626763927100001
83,JXS20161028141122,Stump,Stump,7.000000000000000,Street,125.000000000000000,PLEASANT ST,RAILRD AVE,107128.692091000000000,897006.997632000010000,42.318029399600000,-72.626644255700000
84,CXK20161025141814,Stump,Stump,12.000000000000000,Street,113.000000000000000,BRIERWOOD DR,BRIERWOOD DR,102018.705738000000000,896902.362577999940000,42.316463122400002,-72.688609230500006
85,JXS20161103150654,Stump,Stump,7.000000000000000,Street,46.000000000000000,EVERGREEN RD,EVERGREEN RD,101508.420292000000000,901379.038443999950000,42.356697729300002,-72.695559827500006
86,CXK20161025110249,Stump,Stump,31.000000000000000,Street,298.000000000000000,RYAN RD,RYAN RD,102039.110944000000000,897581.466864999970000,42.322578970599999,-72.688476507399997
87,CXK20161116093544,Stump,Stump,12.000000000000000,Street,63.000000000000000,FLORENCE RD,FLORENCE RD,102944.017029000000000,898189.607435000010000,42.328166432600000,-72.677601304899994
88,CXK20161024151307,Stump,Stump,19.000000000000000,Street,331.000000000000000,NORTH FARMS RD,NORTH FARMS RD,103518.587387000010000,901699.958819000050000,42.359837697899998,-72.671215596500005
89,CXK20161025141843,Stump,Stump,27.000000000000000,Street,113.000000000000000,BRIERWOOD DR,BRIERWOOD DR,102017.918191000000000,896899.282358000050000,42.316435295500000,-72.688618262299997
90,CXK20161013113210,Stump,Stump,22.000000000000000,Street,575.000000000000000,BRIDGE RD,BRIDGE RD,104673.802356000000000,899375.346314999970000,42.339053540999998,-72.656811147200003
91,CXK20161025113452,Stump,Stump,17.000000000000000,Street,45.000000000000000,ACREBROOK DR,ACREBROOK DR,101994.458636000000000,897209.069835999980000,42.319221056000004,-72.688955193100000
92,CXK20161025111841,Stump,Stump,10.000000000000000,Street,30.000000000000000,ACREBROOK DR,ACREBROOK DR,101960.667830000010000,897286.569780000020000,42.319914468299999,-72.689378182699997
93,CXK20161025143312,Stump,Stump,26.000000000000000,Street,53.000000000000000,AUSTIN CIR,AUSTIN CIR,101759.360766000000000,896895.718820999960000,42.316370737000000,-72.691753804599998
94,CXK20161025092041,Stump,Stump,15.000000000000000,Street,48.000000000000000,HICKORY DR,BIRCH HILL RD,102250.804208999990000,897559.580120000060000,42.322408472100001,-72.685904851999993
95,CXK20161025143953,Stump,Stump,25.000000000000000,Borderline,15.000000000000000,AUSTIN CIR,AUSTIN CIR,101688.707169000000000,896839.704440000000000,42.315857606000002,-72.692601289099997
96,CXK20161025111907,Stump,Stump,30.000000000000000,Street,38.000000000000000,ACREBROOK DR,ACREBROOK DR,101974.220983000010000,897270.678359000010000,42.319773115200000,-72.689211094300006
97,CXK20161025141646,Stump,Stump,9.000000000000000,Street,113.000000000000000,BRIERWOOD DR,BRIERWOOD DR,102005.393010999990000,896926.659390000040000,42.316680171900003,-72.688774813600006
98,CXK20161025142116,Stump,Stump,14.000000000000000,Street,113.000000000000000,BRIERWOOD DR,ACREBROOK DR,101993.040282000000000,896886.275127999950000,42.316315083100001,-72.688917817299995
99,CXK20161013113248,Stump,Stump,18.000000000000000,Street,575.000000000000000,BRIDGE RD,BRIDGE RD,104672.194921000000000,899375.738926999970000,42.339056879099999,-72.656830716100004
100,JXS20161026142927,Stump,Stump,25.000000000000000,Street,142.000000000000000,PROSPECT AVE,PROSPECT AVE,105342.192662999990000,898984.202315000000000,42.335613779799999,-72.648637103699997
101,JXS20161018140158,Stump,Stump,35.000000000000000,Street,81.000000000000000,VERNON ST,FEDERAL ST,105095.317306000000000,897383.678195000040000,42.321175854200000,-72.651370331099997
102,CXK20161103090317,Stump,Stump,12.000000000000000,Street,628.000000000000000,WESTHAMPTON RD,WESTHAMPTON RD,100949.580058000010000,895216.833149999960000,42.301155149700001,-72.701289114299996
103,CXK20161103083944,Stump,Stump,42.000000000000000,Borderline,516.000000000000000,WESTHAMPTON RD,WESTHAMPTON RD,101334.609472000000000,895268.504164000040000,42.301669015900004,-72.696628860700002
104,ZXR20161014110724,Stump,Stump,3.000000000000000,Street,243.000000000000000,PLEASANT ST,PLEASANT ST,107147.975114999990000,896901.512411999980000,42.317082105899999,-72.626393457999995
105,CXK20161026100234,Stump,Stump,15.000000000000000,Street,61.000000000000000,OVERLOOK DR,OVERLOOK DR,101789.892193000010000,896667.718970000050000,42.314322124100002,-72.691344848300005
106,CXK20161026103630,Stump,Stump,11.000000000000000,Street,109.000000000000000,OVERLOOK DR,BROOKSIDE CIR,101992.351784000000000,896763.196999000040000,42.315207048100000,-72.688905358599996
107,CXK20161027084942,Stump,Stump,19.000000000000000,Street,54.000000000000000,DEERFIELD DR,DEERFIELD DR,101440.873125000000000,896471.260376999970000,42.312509642199998,-72.695544694800006
108,CXK20161111090716,Stump,Stump,27.000000000000000,Street,277.000000000000000,SPRING ST,SPRING ST,102046.461113000000000,899177.899258999970000,42.336950926000000,-72.688657236400005
109,CXK20161027093348,Stump,Stump,15.000000000000000,Street,824.000000000000000,RYAN RD,BURTS PIT RD,100696.361287000010000,896245.562446000050000,42.310383613900001,-72.704535937399996
110,CXK20161018161447,Stump,Stump,8.000000000000000,Borderline,569.000000000000000,RIVERSIDE DR,RIVERSIDE DR,103592.302476000000000,898160.291366999970000,42.327982835699999,-72.669731628700006
111,CXK20161025113427,Stump,Stump,22.000000000000000,Street,53.000000000000000,ACREBROOK DR,ACREBROOK DR,101996.722985999990000,897202.361577000000000,42.319160952499999,-72.688926592399994
112,ZXR20161028083157,Stump,Stump,15.000000000000000,Street,1.000000000000000,ROUNDHOUSE PLAZA,ROUNDHOUSE PLAZA,106671.797454000000000,896855.691788000050000,42.316612869399997,-72.632161943300005
113,ZXR20161006112322,Stump,Stump,14.000000000000000,Street,32.000000000000000,WASHINGTON PL,VERNON ST,105145.929430000000000,897367.155092000030000,42.321033261399997,-72.650753682200005
114,JXS20161027135057,Stump,Stump,18.000000000000000,Borderline,103.000000000000000,RICK DR,RICK DR,103719.026222000000000,900516.491943000000000,42.349208941699999,-72.668585903600004
115,CXK20161104112643,Stump,Stump,12.000000000000000,Street,967.000000000000000,FLORENCE RD,FLORENCE RD,103237.589871000000000,895003.376843999950000,42.299520354400002,-72.673507929699994
116,CXK20161028120935,Stump,Stump,33.000000000000000,Street,405.000000000000000,FLORENCE RD,FLORENCE RD,103387.682568000000000,896992.776151000060000,42.317447568100000,-72.672019373300003
117,CXK20161028121917,Stump,Stump,18.000000000000000,Street,369.000000000000000,FLORENCE RD,FLORENCE RD,103363.548446999990000,897145.333366999980000,42.318817904500001,-72.672337546300000
118,JXS20161110082148,Stump,Stump,52.000000000000000,Street,615.000000000000000,SPRING ST,SPRING ST,101155.918095999990000,900159.925944000020000,42.345678828899999,-72.699630066699996
119,CXK20161028120859,Stump,Stump,31.000000000000000,Street,405.000000000000000,FLORENCE RD,FLORENCE RD,103387.321901000000000,896989.345061999980000,42.317416636799997,-72.672023176099998
120,CXK20161018135827,Stump,Stump,51.000000000000000,Street,82.000000000000000,MAPLEWOOD TERR,MAPLEWOOD TERR,104022.560503000000000,897748.856478999950000,42.324332095499997,-72.664443736400003
121,CXK20161012134720,Stump,Stump,31.000000000000000,Street,429.000000000000000,BRIDGE RD,BRIDGE RD,104183.182707000000000,899703.868753000050000,42.341950838499997,-72.662818570200002
122,CXK20161014115751,Stump,Stump,32.000000000000000,Street,43.000000000000000,NONOTUCK ST,NONOTUCK ST,104224.976045000000000,898297.226962000020000,42.329293384200000,-72.662078875899994
123,CXK20161018135934,Stump,Stump,30.000000000000000,Street,82.000000000000000,MAPLEWOOD TERR,MAPLEWOOD TERR,104013.680219000000000,897734.636395000040000,42.324202994700002,-72.664549107499994
124,CXK20161025145248,Stump,Stump,26.000000000000000,Street,235.000000000000000,ACREBROOK DR,ACREBROOK DR,101835.225240999990000,896827.270706000040000,42.315764106600000,-72.690822023199999
125,CXK20161025113250,Stump,Stump,27.000000000000000,Street,53.000000000000000,ACREBROOK DR,ACREBROOK DR,102007.850053999990000,897181.558141999990000,42.318975076400001,-72.688788104599993
126,CXK20161025141743,Stump,Stump,24.000000000000000,Street,113.000000000000000,BRIERWOOD DR,BRIERWOOD DR,102012.832632000010000,896908.379517999940000,42.316516550099998,-72.688681485000004
127,CXK20161031104635,Stump,Stump,5.000000000000000,Street,295.000000000000000,CARDINAL WAY,CARDINAL WAY,101676.462965000000000,896152.919037000040000,42.309673626299997,-72.692633319400002
128,JXS20161031143633,Stump,Stump,36.000000000000000,Street,312.000000000000000,HATFIELD ST,COOKE AVE,105629.643626000000000,899616.649920000000000,42.341341877399998,-72.645252451499999
129,CXK20161101093826,Stump,Stump,5.000000000000000,Street,71.000000000000000,CARDINAL WAY,CARDINAL WAY,101721.044179000000000,895625.305457000040000,42.304929656399999,-72.692003203300004
130,CXK20161026090839,Stump,Stump,23.000000000000000,Borderline,60.000000000000000,PENCASAL DR,PENCASAL DR,101633.710086000010000,896772.968179999970000,42.315249922400000,-72.693257039599999
131,CXK20161026094221,Stump,Stump,40.000000000000000,Street,324.000000000000000,ACREBROOK DR,BROOKSIDE CIR,101517.520485000000000,896682.474659000060000,42.314420659000000,-72.694650948499998
132,CXK20161101094242,Stump,Stump,6.000000000000000,Street,29.000000000000000,CARDINAL WAY,CARDINAL WAY,101730.256098000000000,895521.553362000040000,42.303996837800000,-72.691873905799994
133,CXK20161026130222,Stump,Stump,11.000000000000000,Street,1005.000000000000000,BURTS PIT RD,RURAL LN,101768.316269000000000,896273.467313000000000,42.310770358799999,-72.691539738000003
134,CXK20161102111504,Stump,Stump,31.000000000000000,Street,139.000000000000000,WESTHAMPTON RD,WESTHAMPTON RD,102703.078945999990000,895198.892423999960000,42.301214006099997,-72.680022308199995
135,CXK20161102111747,Stump,Stump,28.000000000000000,Street,115.000000000000000,WESTHAMPTON RD,WESTHAMPTON RD,102784.265644000000000,895181.196890000020000,42.301064817499999,-72.679034830600003
136,CXK20161102102856,Stump,Stump,8.000000000000000,Street,127.000000000000000,DUNPHY DR,DUNPHY DR,102661.491695000000000,895342.189946000000000,42.302498794400002,-72.680550668600006
137,CXK20161102111602,Stump,Stump,34.000000000000000,Street,139.000000000000000,WESTHAMPTON RD,WESTHAMPTON RD,102711.742652999990000,895197.041084000030000,42.301198419300000,-72.679916937100003
138,CXK20161102102921,Stump,Stump,8.000000000000000,Street,127.000000000000000,DUNPHY DR,DUNPHY DR,102667.311025000000000,895341.120003000020000,42.302489887900002,-72.680479919400000
139,CXK20161102103533,Stump,Stump,34.000000000000000,Street,95.000000000000000,DUNPHY DR,DUNPHY DR,102772.989884000000000,895308.368372000060000,42.302208216399997,-72.679192886899997
140,CXK20161103084053,Stump,Stump,34.000000000000000,Borderline,516.000000000000000,WESTHAMPTON RD,WESTHAMPTON RD,101323.917092000000000,895266.362914000060000,42.301648389800000,-72.696758158099996
141,CXK20161103090416,Stump,Stump,12.000000000000000,Street,628.000000000000000,WESTHAMPTON RD,WESTHAMPTON RD,100946.590991000000000,895216.133184000030000,42.301148469600001,-72.701325241600003
142,CXK20161103134047,Stump,Stump,17.000000000000000,Street,165.000000000000000,WEST FARMS RD,WEST FARMS RD,99711.724535799993000,895509.898652000000000,42.303635390300002,-72.716350556099997
143,CXK20161017152728,Stump,Stump,17.000000000000000,Borderline,101.000000000000000,MILTON ST,MILTON ST,104806.261111000000000,897623.158052999990000,42.323296479400000,-72.654916028599999
144,CXK20161018135700,Stump,Stump,48.000000000000000,Street,82.000000000000000,MAPLEWOOD TERR,MAPLEWOOD TERR,104032.461950000000000,897765.164345999950000,42.324480115999997,-72.664326322899996
145,ZXR20161012110956,Stump,Stump,8.000000000000000,Street,179.000000000000000,MAIN ST,MAIN ST,106717.571900000000000,897046.329980000040000,42.318334476799997,-72.631637400100004
146,CXK20161111123625,Stump,Stump,25.000000000000000,Street,41.000000000000000,NORTH LOUDVILLE RD,NORTH LOUDVILLE RD,98069.017583800000000,894564.548876999990000,42.294912777299999,-72.736105280100006
147,JXS20161114112359,Stump,Stump,8.000000000000000,Borderline,428.000000000000000,CHESTERFIELD RD,CHESTERFIELD RD,100082.341379000000000,899827.996978000040000,42.342554167999999,-72.712600614099998
148,JXS20161114083746,Stump,Stump,10.000000000000000,Street,185.000000000000000,CHESTERFIELD RD,CHESTERFIELD RD,100971.441870000000000,899878.547604999970000,42.343122504500002,-72.701820569099993
149,CXK20161111123702,Stump,Stump,20.000000000000000,Borderline,41.000000000000000,NORTH LOUDVILLE RD,NORTH LOUDVILLE RD,98072.638143499993000,894561.892393999970000,42.294889336099999,-72.736060913299994
150,JXS20161103130826,Stump,Stump,24.000000000000000,Borderline,47.000000000000000,EAST CENTER ST,EAST CENTER ST,101752.027946000000000,901262.293094999970000,42.355677499599999,-72.692583320200001
151,JXS20161103130914,Stump,Stump,29.000000000000000,Street,47.000000000000000,EAST CENTER ST,EAST CENTER ST,101733.194938000000000,901259.220014999970000,42.355647465300002,-72.692811373400005
152,ZXR20161007105831,Stump,Stump,10.000000000000000,Street,137.000000000000000,ELM ST,ROUND HILL RD,105989.440770000000000,897344.599530000010000,42.320932209600002,-72.640517910499995
153,JXS20161104150247,Stump,Stump,65.000000000000000,Street,168.000000000000000,HAYDENVILLE RD,HAYDENVILLE RD,101843.555127000000000,901156.001419999990000,42.354732186299998,-72.691454440599998
154,JXS20161104150537,Stump,Stump,28.000000000000000,Street,90.000000000000000,HAYDENVILLE RD,HAYDENVILLE RD,101902.316166000000000,900834.129290999960000,42.351842106600003,-72.690686736999993
155,CXK20161114125925,Stump,Stump,24.000000000000000,Street,374.000000000000000,SYLVESTER RD,SYLVESTER RD,99674.871409200001000,897604.348190000050000,42.322484804100000,-72.717159936700000
156,CXK20161114125436,Stump,Stump,38.000000000000000,Street,394.000000000000000,SYLVESTER RD,SYLVESTER RD,99655.229328200003000,897655.852971000010000,42.322945923399999,-72.717407123000001
157,CXK20161104092602,Stump,Stump,47.000000000000000,Street,629.000000000000000,FLORENCE RD,FLORENCE RD,103230.254153000000000,896187.813939000010000,42.310181792300000,-72.673794547900002
158,CXK20161104113651,Stump,Stump,17.000000000000000,Street,993.000000000000000,FLORENCE RD,FLORENCE RD,103262.140230000000000,894857.849954999980000,42.298213354600001,-72.673185953699999
159,CXK20161104092650,Stump,Stump,34.000000000000000,Street,629.000000000000000,FLORENCE RD,FLORENCE RD,103232.545658000000000,896191.986828999940000,42.310219640600003,-72.673767452500002
160,CXK20161104112737,Stump,Stump,18.000000000000000,Street,967.000000000000000,FLORENCE RD,FLORENCE RD,103239.954914000000000,894985.326012999980000,42.299358152800004,-72.673476239199999
161,CXK20161104112756,Stump,Stump,20.000000000000000,Street,967.000000000000000,FLORENCE RD,FLORENCE RD,103243.202015000000000,894978.198990999950000,42.299294397200001,-72.673435675299999
162,CXK20161107153227,Stump,Stump,13.000000000000000,Street,129.000000000000000,GREENLEAF DR,LONGFELLOW DR,102271.358834000000000,894870.149973000050000,42.298200768500003,-72.685202164000003
163,JXS20161107120124,Stump,Stump,20.000000000000000,Borderline,50.000000000000000,RIVER RD,RIVER RD,100987.801124000010000,901334.806753000010000,42.356233692600000,-72.701871068700001
164,JXS20161107141002,Stump,Stump,29.000000000000000,Street,99.000000000000000,WATER ST,WATER ST,100956.978484000010000,900636.760998000040000,42.349946042600003,-72.702125752000001
165,JXS20161107113117,Stump,Stump,17.000000000000000,Borderline,56.000000000000000,RIVER RD,RIVER RD,101005.102696000000000,901400.827566000050000,42.356830199699999,-72.701672368900006
166,JXS20161107120457,Stump,Stump,36.000000000000000,Borderline,48.000000000000000,RIVER RD,RIVER RD,100984.881830000000000,901325.672743999980000,42.356151098900000,-72.701904937999998
167,CXK20161012085558,Stump,Stump,20.000000000000000,Street,87.000000000000000,LOCUST ST,LOCUST ST,104747.073462999990000,898663.166875000000000,42.332651441700001,-72.655804986700005
168,ZXR20161013110250,Stump,Stump,2.000000000000000,Street,125.000000000000000,PLEASANT ST,PLEASANT ST,107102.994351000000000,896969.075869999940000,42.317684968700000,-72.626949887099997
169,JXS20161107141036,Stump,Stump,29.000000000000000,Street,99.000000000000000,WATER ST,WATER ST,100956.595499000000000,900640.950290999960000,42.349983705600003,-72.702131116399997
170,JXS20161110155604,Stump,Stump,11.000000000000000,Street,16.000000000000000,GOLDEN DR,GOLDEN DR,101792.702488000000000,897649.388496999980000,42.323159451800002,-72.691477094099994
171,CXK20161012160252,Stump,Stump,10.000000000000000,Street,38.000000000000000,STILSON AVE,STILSON AVE,103754.021589000000000,899309.331369000020000,42.338346433100000,-72.667960597000004
172,CXK20161013114616,Stump,Stump,12.000000000000000,Street,575.000000000000000,BRIDGE RD,BRIDGE RD,104544.028853000000000,899447.808420000020000,42.339689988899998,-72.658397734499999
173,JXS20161108105247,Stump,Stump,36.000000000000000,Street,546.000000000000000,AUDUBON RD,AUDUBON RD,99247.851314300002000,902264.647765000000000,42.364381335799997,-72.723150626500001
174,CXK20161011153403,Stump,Stump,44.000000000000000,Borderline,21.000000000000000,MIDDLE ST,MIDDLE ST,103652.935056000000000,898809.713402000020000,42.333836412399997,-72.669104048799994
175,CXK20161111085542,Stump,Stump,55.000000000000000,Street,431.000000000000000,SPRING ST,SPRING ST,101646.211902000000000,899632.731569000050000,42.340994984100000,-72.693590821300006
176,CXK20161108131817,Stump,Stump,14.000000000000000,Street,524.000000000000000,PARK HILL RD,PARK HILL RD SOUTH,101463.953030000000000,894068.830578000050000,42.290885853500001,-72.694856561999998
177,CXK20161028121050,Stump,Stump,12.000000000000000,Street,405.000000000000000,FLORENCE RD,FLORENCE RD,103388.610018000010000,896999.427246000040000,42.317507556099997,-72.672009232199997
178,CXK20161108093801,Stump,Stump,14.000000000000000,Street,184.000000000000000,GREENLEAF DR,GREENLEAF DR,102372.504883000000000,895071.465463000000000,42.300025663200003,-72.684009562900002
179,JXS20161107094831,Stump,Stump,15.000000000000000,Street,260.000000000000000,MAIN ST LEEDS,MAIN ST LEEDS,101064.189478000000000,900996.960721999990000,42.353202122299997,-72.700886208300005
180,CXK20161026090804,Stump,Stump,18.000000000000000,Borderline,60.000000000000000,PENCASAL DR,PENCASAL DR,101629.832876999990000,896779.699534000010000,42.315310029599999,-72.693305209200005
181,CXK20161019152518,Stump,Stump,61.000000000000000,Borderline,18.000000000000000,WEST CENTER ST,WEST CENTER ST,103329.781489000000000,898726.997436000030000,42.333051862900000,-72.673010994899997
182,ZXR20161017145709,Stump,Stump,46.000000000000000,Street,18.000000000000000,EAST ST,EAST ST,106654.695607000000000,896210.046831000010000,42.310798678399998,-72.632265416899997
183,JXS20161111102759,Stump,Stump,23.000000000000000,Street,94.000000000000000,CHESTERFIELD RD,CHESTERFIELD RD,101467.195347999990000,899696.264100000030000,42.341544327400001,-72.695773833999993
184,CXK20161012082951,Stump,Stump,34.000000000000000,Borderline,6.000000000000000,HATFIELD ST,HATFIELD ST,104720.912461000000000,898714.112625999960000,42.333106864000001,-72.656130765499995
185,CXK20161012083601,Stump,Stump,11.000000000000000,Borderline,26.000000000000000,HATFIELD ST,HATFIELD ST,104780.459806000000000,898775.347067000000000,42.333665361000001,-72.655418361900004
186,CXK20161019142446,Stump,Stump,9.000000000000000,Borderline,448.000000000000000,FLORENCE RD,BURTS PIT RD,103393.556138999990000,896793.329949000040000,42.315652876400002,-72.671914888499998
187,CXK20161019084218,Stump,Stump,23.000000000000000,Street,89.000000000000000,BLISS ST,BLISS ST,103101.802523000010000,897969.442048999950000,42.326204100799998,-72.675650285000003
188,JXS20161031112735,Stump,Stump,35.000000000000000,Borderline,200.000000000000000,NORTH KING ST,HATFIELD ST,105734.161502000000000,899838.824293000040000,42.343354519499997,-72.644020364599996
189,JXS20161031120110,Stump,Stump,22.000000000000000,Street,312.000000000000000,HATFIELD ST,HATFIELD ST,105662.112546000000000,899583.467736999970000,42.341047095100002,-72.644853060399996
190,JXS20161027132730,Stump,Stump,33.000000000000000,Street,31.000000000000000,MARY JANE LN,MARY JANE LN,104051.243420000000000,900279.502595999980000,42.347116475599996,-72.664514935499994
191,JXS20161026112256,Stump,Stump,24.000000000000000,Borderline,54.000000000000000,ALLISON ST,ALLISON ST,105589.007921000000000,899069.388786999970000,42.336410512999997,-72.645656336900004
192,JXS20161031133043,Stump,Stump,36.000000000000000,Street,272.000000000000000,HATFIELD ST,HATFIELD ST,105518.371491000000000,899437.008712999990000,42.339711287800000,-72.646573353199997
193,JXS20161101115602,Stump,Stump,18.000000000000000,Street,20.000000000000000,ROCKLAND HEIGHTS RD,ROCKLAND HEIGHTS RD,105827.022520000000000,900939.557387999960000,42.353274523099998,-72.643072539599999
194,CXK20161019083816,Stump,Stump,30.000000000000000,Street,89.000000000000000,BLISS ST,BLISS ST,103102.566702000000000,897952.865261000000000,42.326054971500000,-72.675638242600002
195,JXS20161103150116,Stump,Stump,18.000000000000000,Street,46.000000000000000,EVERGREEN RD,EVERGREEN RD,101492.966665999990000,901378.142953000030000,42.356687718000003,-72.695747237500001
196,JXS20161031132941,Stump,Stump,28.000000000000000,Street,272.000000000000000,HATFIELD ST,HATFIELD ST,105525.322687000010000,899441.921144000020000,42.339756350700000,-72.646489809000002
197,CXK20161114093313,Stump,Stump,51.000000000000000,Street,11.000000000000000,TURKEY HILL RD,TURKEY HILL RD,99742.674400699994000,896163.270549000010000,42.309520998000004,-72.716088203599995
198,JXS20161031133009,Stump,Stump,36.000000000000000,Street,272.000000000000000,HATFIELD ST,HATFIELD ST,105522.310974000010000,899439.365990999970000,42.339732984800001,-72.646525936200007
199,JXS20161101115631,Stump,Stump,24.000000000000000,Street,20.000000000000000,ROCKLAND HEIGHTS RD,ROCKLAND HEIGHTS RD,105840.894623000000000,900934.220337999980000,42.353228152500002,-72.642903312000001
200,ZXR20161010135912,Stump,Stump,25.000000000000000,Borderline,225.000000000000000,ELM ST,FRANKLIN ST,105682.531974000000000,897565.465375000030000,42.322883449499997,-72.644276766999994
201,ZXR20161011121350,Stump,Stump,40.000000000000000,Street,15.000000000000000,BARRETT PL,BARRETT PL,106260.974856999990000,897502.554295000040000,42.322386766500003,-72.637249650599998
202,CXK20161115080202,Stump,Stump,38.000000000000000,Street,396.000000000000000,SYLVESTER RD,SYLVESTER RD,99624.960055999996000,897685.189350000000000,42.323206117700003,-72.717779388400004
203,ZXR20161010151103,Stump,Stump,49.000000000000000,Borderline,196.000000000000000,ROUND HILL RD,ROUND HILL RD,106137.905329000000000,898001.936487999980000,42.326867447900000,-72.638823448500005
204,ZXR20161006152135,Stump,Stump,2.000000000000000,Street,4.000000000000000,WASHINGTON AVE,WASHINGTON AVE,105589.742174000000000,897541.037908999950000,42.322652340399998,-72.645398395100003
205,CXK20161114125852,Stump,Stump,22.000000000000000,Street,374.000000000000000,SYLVESTER RD,SYLVESTER RD,99672.669466199994000,897611.147092000000000,42.322545724500003,-72.717187824400000
206,ZXR20161007144451,Stump,Stump,8.000000000000000,Street,300.000000000000000,PROSPECT ST,NORTH ELM ST,105189.973164000000000,898270.136858999960000,42.329167280699998,-72.650367152000001
207,JXS20161020154138,Stump,Stump,58.000000000000000,Street,79.000000000000000,WEST ST,AHWAGA AVE,106217.290427000000000,896633.355795999990000,42.314556942300001,-72.637638932399994
208,ZXR20161025101631,Stump,Stump,45.000000000000000,Street,29.000000000000000,WOODBINE AVE,WOODBINE AVE,106999.331347000000000,898365.114965999960000,42.330239867099998,-72.628431332500000
209,ZXR20161025160442,Stump,Stump,42.000000000000000,Borderline,41.000000000000000,MARSHALL ST,MARSHALL ST,107430.254701000000000,898727.543453000020000,42.333553673399997,-72.623261202099997
210,ZXR20161025142325,Stump,Stump,25.000000000000000,Borderline,50.000000000000000,COOLIDGE AVE,COOLIDGE AVE,107317.910938000000000,898572.220993999970000,42.332142125300003,-72.624599399700003
211,ZXR20161025142807,Stump,Stump,35.000000000000000,Borderline,50.000000000000000,COOLIDGE AVE,COOLIDGE AVE,107329.613630000010000,898568.319177999980000,42.332108389900000,-72.624456792199993
212,ZXR20161025160354,Stump,Stump,41.000000000000000,Borderline,41.000000000000000,MARSHALL ST,MARSHALL ST,107437.244123000000000,898722.767111000020000,42.333511505099999,-72.623175637599999
213,ZXR20161025135213,Stump,Stump,41.000000000000000,Borderline,29.000000000000000,SHERMAN AVE,SHERMAN AVE,107310.487223000000000,898494.298795999960000,42.331439784200001,-72.624677001899997